ONEWEB-0229             
1 48779U 21045N   25204.87437214  .00000004  00000+0 -24363-4 0  9992
2 48779  87.9080 324.6583 0002088  99.8154 260.3212 13.15549801201246
ONEWEB-0228             
1 48780U 21045P   25204.83172676 -.00000088  00000+0 -26840-3 0  9992
2 48780  87.9076 324.6409 0002041  97.1378 262.9985 13.15547206201150
ONEWEB-0232             
1 48781U 21045Q   25204.88231188 -.00000120  00000+0 -35204-3 0  9993
2 48781  87.9072 324.6257 0001943  98.6130 261.5221 13.15548716201481
ONEWEB-0231             
1 48782U 21045R   25204.86011916  .00000093  00000+0  21275-3 0  9997
2 48782  87.9066 324.6842 0002177  95.7396 264.3983 13.15549077201170
ONEWEB-0234             
1 48783U 21045S   25204.89766566  .00007718  00000+0  20558-1 0  9991
2 48783  87.9073 324.6428 0001148  87.1480 272.9781 13.15190738201318
ONEWEB-0238             
1 48784U 21045T   25204.89826279  .00000049  00000+0  95181-4 0  9997
2 48784  87.9064 324.6418 0001285  97.0391 263.0886 13.15551288201218
ONEWEB-0240             
1 48785U 21045U   25204.84348985  .00000004  00000+0 -23978-4 0  9993
2 48785  87.9075 324.6325 0002002  87.9699 272.1661 13.15548813201239
ONEWEB-0246             
1 48786U 21045V   25204.76187764 -.00000031  00000+0 -11613-3 0  9994
2 48786  87.9078 324.6600 0002074 100.3758 259.7607 13.15549538201094
